{
  "type": "FeatureCollection",
  "features": [
    {
      "type": "Feature",
      "properties": {
        "norad_id": 30022,
        "name": "FENGYUN 1C DEB",
        "group": "fengyun-1c-debris",
        "lat": -40.452898973491976,
        "lon": -167.78953727266298,
        "alt_km": 776.2245958795311,
        "timestamp": "2025-12-02T13:52:17.535412+00:00",
        "meta_object_name": "FENGYUN 1C DEB",
        "meta_object_id": "1999-025MX",
        "meta_epoch": "2025-12-02T02:47:33.628416",
        "meta_mean_motion": 14.23125983,
        "meta_eccentricity": 0.00667338,
        "meta_inclination": 99.073,
        "meta_ra_of_asc_node": 183.9041,
        "meta_arg_of_pericenter": 299.9874,
        "meta_mean_anomaly": 175.0965,
        "meta_ephemeris_type": 0,
        "meta_classification_type": "U",
        "meta_norad_cat_id": 30022,
        "meta_element_set_no": 999,
        "meta_rev_at_epoch": 98041,
        "meta_bstar": 9.2120821e-05,
        "meta_mean_motion_dot": 1.65e-06,
        "meta_mean_motion_ddot": 0,
        "tle_line1": "1 30022U 99025MX  25336.11636144  .00000165  00000+0  92121-4 0  9997",
        "tle_line2": "2 30022  99.0730 183.9041 0066733 299.9874 175.0965 14.23125983980419"
      },
      "geometry": {
        "type": "Point",
        "coordinates": [
          -167.78953727266298,
          -40.452898973491976
        ]
      }
    },
    {
      "type": "Feature",
      "properties": {
        "norad_id": 30023,
        "name": "FENGYUN 1C DEB",
        "group": "fengyun-1c-debris",
        "lat": -58.46888510739515,
        "lon": -174.74691863194346,
        "alt_km": 890.0241500039701,
        "timestamp": "2025-12-02T13:52:17.535423+00:00",
        "meta_object_name": "FENGYUN 1C DEB",
        "meta_object_id": "1999-025MY",
        "meta_epoch": "2025-12-02T02:49:13.499904",
        "meta_mean_motion": 14.11837672,
        "meta_eccentricity": 0.00471813,
        "meta_inclination": 99.2943,
        "meta_ra_of_asc_node": 169.2962,
        "meta_arg_of_pericenter": 92.8702,
        "meta_mean_anomaly": 28.6454,
        "meta_ephemeris_type": 0,
        "meta_classification_type": "U",
        "meta_norad_cat_id": 30023,
        "meta_element_set_no": 999,
        "meta_rev_at_epoch": 97046,
        "meta_bstar": 0.00047423264,
        "meta_mean_motion_dot": 8.27e-06,
        "meta_mean_motion_ddot": 0,
        "tle_line1": "1 30023U 99025MY  25336.11751736  .00000827  00000+0  47423-3 0  9992",
        "tle_line2": "2 30023  99.2943 169.2962 0047181  92.8702  28.6454 14.11837672970465"
      },
      "geometry": {
        "type": "Point",
        "coordinates": [
          -174.74691863194346,
          -58.46888510739515
        ]
      }
    },
    {
      "type": "Feature",
      "properties": {
        "norad_id": 30028,
        "name": "FENGYUN 1C DEB",
        "group": "fengyun-1c-debris",
        "lat": 64.86039761200863,
        "lon": -48.72220229656897,
        "alt_km": 821.372237690678,
        "timestamp": "2025-12-02T13:52:17.535433+00:00",
        "meta_object_name": "FENGYUN 1C DEB",
        "meta_object_id": "1999-025ND",
        "meta_epoch": "2025-12-01T22:50:41.770176",
        "meta_mean_motion": 14.55410488,
        "meta_eccentricity": 0.0174177,
        "meta_inclination": 98.1452,
        "meta_ra_of_asc_node": 328.4367,
        "meta_arg_of_pericenter": 262.0489,
        "meta_mean_anomaly": 125.1013,
        "meta_ephemeris_type": 0,
        "meta_classification_type": "U",
        "meta_norad_cat_id": 30028,
        "meta_element_set_no": 999,
        "meta_rev_at_epoch": 99565,
        "meta_bstar": 0.0005785535,
        "meta_mean_motion_dot": 3.029e-05,
        "meta_mean_motion_ddot": 0,
        "tle_line1": "1 30028U 99025ND  25335.95187234  .00003029  00000+0  57855-3 0  9991",
        "tle_line2": "2 30028  98.1452 328.4367 0174177 262.0489 125.1013 14.55410488995652"
      },
      "geometry": {
        "type": "Point",
        "coordinates": [
          -48.72220229656897,
          64.86039761200863
        ]
      }
    },
    {
      "type": "Feature",
      "properties": {
        "norad_id": 30035,
        "name": "FENGYUN 1C DEB",
        "group": "fengyun-1c-debris",
        "lat": -11.333668105859493,
        "lon": 68.7347505793652,
        "alt_km": 786.3437694925333,
        "timestamp": "2025-12-02T13:52:17.535460+00:00",
        "meta_object_name": "FENGYUN 1C DEB",
        "meta_object_id": "1999-025NL",
        "meta_epoch": "2025-12-02T06:51:48.278016",
        "meta_mean_motion": 14.36966626,
        "meta_eccentricity": 0.01156908,
        "meta_inclination": 99.2698,
        "meta_ra_of_asc_node": 250.2963,
        "meta_arg_of_pericenter": 92.1443,
        "meta_mean_anomaly": 28.1995,
        "meta_ephemeris_type": 0,
        "meta_classification_type": "U",
        "meta_norad_cat_id": 30035,
        "meta_element_set_no": 999,
        "meta_rev_at_epoch": 98973,
        "meta_bstar": 9.3178656e-05,
        "meta_mean_motion_dot": 2.46e-06,
        "meta_mean_motion_ddot": 0,
        "tle_line1": "1 30035U 99025NL  25336.28597544  .00000246  00000+0  93179-4 0  9993",
        "tle_line2": "2 30035  99.2698 250.2963 0115690  92.1443  28.1995 14.36966626989737"
      },
      "geometry": {
        "type": "Point",
        "coordinates": [
          68.7347505793652,
          -11.333668105859493
        ]
      }
    },
    {
      "type": "Feature",
      "properties": {
        "norad_id": 30036,
        "name": "FENGYUN 1C DEB",
        "group": "fengyun-1c-debris",
        "lat": -50.35453791995905,
        "lon": 14.02681485453458,
        "alt_km": 697.4299888400292,
        "timestamp": "2025-12-02T13:52:17.535474+00:00",
        "meta_object_name": "FENGYUN 1C DEB",
        "meta_object_id": "1999-025NM",
        "meta_epoch": "2025-12-02T00:57:35.581824",
        "meta_mean_motion": 14.46114834,
        "meta_eccentricity": 0.0189538,
        "meta_inclination": 98.254,
        "meta_ra_of_asc_node": 3.4134,
        "meta_arg_of_pericenter": 240.3783,
        "meta_mean_anomaly": 147.4603,
        "meta_ephemeris_type": 0,
        "meta_classification_type": "U",
        "meta_norad_cat_id": 30036,
        "meta_element_set_no": 999,
        "meta_rev_at_epoch": 99022,
        "meta_bstar": 0.00052495116,
        "meta_mean_motion_dot": 2.29e-05,
        "meta_mean_motion_ddot": 0,
        "tle_line1": "1 30036U 99025NM  25336.03999516  .00002290  00000+0  52495-3 0  9998",
        "tle_line2": "2 30036  98.2540   3.4134 0189538 240.3783 147.4603 14.46114834990221"
      },
      "geometry": {
        "type": "Point",
        "coordinates": [
          14.02681485453458,
          -50.35453791995905
        ]
      }
    },
    {
      "type": "Feature",
      "properties": {
        "norad_id": 30037,
        "name": "FENGYUN 1C DEB",
        "group": "fengyun-1c-debris",
        "lat": 59.22487394660634,
        "lon": -61.735559294122744,
        "alt_km": 658.4436921921879,
        "timestamp": "2025-12-02T13:52:17.535486+00:00",
        "meta_object_name": "FENGYUN 1C DEB",
        "meta_object_id": "1999-025NN",
        "meta_epoch": "2025-12-01T11:21:04.097376",
        "meta_mean_motion": 14.340942,
        "meta_eccentricity": 0.01746845,
        "meta_inclination": 98.3825,
        "meta_ra_of_asc_node": 311.5278,
        "meta_arg_of_pericenter": 88.4261,
        "meta_mean_anomaly": 31.1136,
        "meta_ephemeris_type": 0,
        "meta_classification_type": "U",
        "meta_norad_cat_id": 30037,
        "meta_element_set_no": 999,
        "meta_rev_at_epoch": 98626,
        "meta_bstar": 0.00020234207,
        "meta_mean_motion_dot": 6.26e-06,
        "meta_mean_motion_ddot": 0,
        "tle_line1": "1 30037U 99025NN  25335.47296409  .00000626  00000+0  20234-3 0  9994",
        "tle_line2": "2 30037  98.3825 311.5278 0174684  88.4261  31.1136 14.34094200986269"
      },
      "geometry": {
        "type": "Point",
        "coordinates": [
          -61.735559294122744,
          59.22487394660634
        ]
      }
    },
    {
      "type": "Feature",
      "properties": {
        "norad_id": 30038,
        "name": "FENGYUN 1C DEB",
        "group": "fengyun-1c-debris",
        "lat": -80.47781708341682,
        "lon": 83.10105728270426,
        "alt_km": 889.3186653537223,
        "timestamp": "2025-12-02T13:52:17.535496+00:00",
        "meta_object_name": "FENGYUN 1C DEB",
        "meta_object_id": "1999-025NP",
        "meta_epoch": "2025-12-01T21:54:55.379808",
        "meta_mean_motion": 14.39260958,
        "meta_eccentricity": 0.02577773,
        "meta_inclination": 98.3677,
        "meta_ra_of_asc_node": 323.7896,
        "meta_arg_of_pericenter": 135.2152,
        "meta_mean_anomaly": 285.2434,
        "meta_ephemeris_type": 0,
        "meta_classification_type": "U",
        "meta_norad_cat_id": 30038,
        "meta_element_set_no": 999,
        "meta_rev_at_epoch": 98735,
        "meta_bstar": 0.00021285267,
        "meta_mean_motion_dot": 9.24e-06,
        "meta_mean_motion_ddot": 0,
        "tle_line1": "1 30038U 99025NP  25335.91314097  .00000924  00000+0  21285-3 0  9996",
        "tle_line2": "2 30038  98.3677 323.7896 0257777 135.2152 285.2434 14.39260958987355"
      },
      "geometry": {
        "type": "Point",
        "coordinates": [
          83.10105728270426,
          -80.47781708341682
        ]
      }
    }
  ]
}